{"fetched_at":"2026-07-10T07:58:44.755Z","source":"https://celestrak.org/NORAD/elements/gp.php?GROUP=spire&FORMAT=JSON","constellation":"spire","records":[{"OBJECT_NAME":"LEMUR-2-VALHALLA","OBJECT_ID":"2024-022B","EPOCH":"2026-07-08T12:25:21.736416","CLASSIFICATION_TYPE":"U","MEAN_MOTION":15.40344373,"ECCENTRICITY":0.00099081,"INCLINATION":97.4095,"RA_OF_ASC_NODE":39.7731,"ARG_OF_PERICENTER":46.0433,"MEAN_ANOMALY":314.1629,"EPHEMERIS_TYPE":0,"NORAD_CAT_ID":58900,"ELEMENT_SET_NO":999,"REV_AT_EPOCH":13555,"BSTAR":0.00030170396,"MEAN_MOTION_DOT":0.00012113,"MEAN_MOTION_DDOT":0},{"OBJECT_NAME":"LEMUR-2-CAEL","OBJECT_ID":"2024-022E","EPOCH":"2026-07-08T23:07:21.353376","CLASSIFICATION_TYPE":"U","MEAN_MOTION":15.41708829,"ECCENTRICITY":0.00078482,"INCLINATION":97.4079,"RA_OF_ASC_NODE":41.1995,"ARG_OF_PERICENTER":30.7349,"MEAN_ANOMALY":329.4356,"EPHEMERIS_TYPE":0,"NORAD_CAT_ID":58903,"ELEMENT_SET_NO":999,"REV_AT_EPOCH":13569,"BSTAR":0.00030790464,"MEAN_MOTION_DOT":0.0001293,"MEAN_MOTION_DDOT":0},{"OBJECT_NAME":"LEMUR-2-JOHNNYTRUONG","OBJECT_ID":"2024-043BA","EPOCH":"2026-07-08T16:26:29.091552","CLASSIFICATION_TYPE":"U","MEAN_MOTION":15.62171037,"ECCENTRICITY":0.00043294,"INCLINATION":97.5388,"RA_OF_ASC_NODE":342.7481,"ARG_OF_PERICENTER":112.0392,"MEAN_ANOMALY":248.1325,"EPHEMERIS_TYPE":0,"NORAD_CAT_ID":59146,"ELEMENT_SET_NO":999,"REV_AT_EPOCH":13139,"BSTAR":0.00037828482,"MEAN_MOTION_DOT":0.00033181,"MEAN_MOTION_DDOT":0},{"OBJECT_NAME":"LEMUR-2-TOMATOKECHUP","OBJECT_ID":"2024-149D","EPOCH":"2026-07-09T04:31:06.191904","CLASSIFICATION_TYPE":"U","MEAN_MOTION":15.36499131,"ECCENTRICITY":0.00030093,"INCLINATION":97.3793,"RA_OF_ASC_NODE":272.2971,"ARG_OF_PERICENTER":133.0589,"MEAN_ANOMALY":227.0907,"EPHEMERIS_TYPE":0,"NORAD_CAT_ID":60471,"ELEMENT_SET_NO":999,"REV_AT_EPOCH":10554,"BSTAR":0.00023391621,"MEAN_MOTION_DOT":0.00008251,"MEAN_MOTION_DDOT":0},{"OBJECT_NAME":"LEMUR-2-STELLA","OBJECT_ID":"2024-149BT","EPOCH":"2026-07-09T01:15:57.192192","CLASSIFICATION_TYPE":"U","MEAN_MOTION":15.12285468,"ECCENTRICITY":0.00010331,"INCLINATION":97.6729,"RA_OF_ASC_NODE":272.6092,"ARG_OF_PERICENTER":111.443,"MEAN_ANOMALY":248.6911,"EPHEMERIS_TYPE":0,"NORAD_CAT_ID":60533,"ELEMENT_SET_NO":999,"REV_AT_EPOCH":10380,"BSTAR":0.00046022355,"MEAN_MOTION_DOT":0.00007901,"MEAN_MOTION_DDOT":0},{"OBJECT_NAME":"LEMUR-2-MARHISYAM","OBJECT_ID":"2024-149BW","EPOCH":"2026-07-09T04:10:02.902080","CLASSIFICATION_TYPE":"U","MEAN_MOTION":15.11702055,"ECCENTRICITY":0.0002797,"INCLINATION":97.6877,"RA_OF_ASC_NODE":273.2018,"ARG_OF_PERICENTER":78.4878,"MEAN_ANOMALY":281.6666,"EPHEMERIS_TYPE":0,"NORAD_CAT_ID":60536,"ELEMENT_SET_NO":999,"REV_AT_EPOCH":10380,"BSTAR":0.00048492062,"MEAN_MOTION_DOT":0.00008195,"MEAN_MOTION_DDOT":0},{"OBJECT_NAME":"LEMUR-2-AHMED-ASRAR","OBJECT_ID":"2024-149DN","EPOCH":"2026-07-09T15:34:41.761344","CLASSIFICATION_TYPE":"U","MEAN_MOTION":15.13228976,"ECCENTRICITY":0.0000696,"INCLINATION":97.7003,"RA_OF_ASC_NODE":275.8609,"ARG_OF_PERICENTER":238.292,"MEAN_ANOMALY":121.8243,"EPHEMERIS_TYPE":0,"NORAD_CAT_ID":60576,"ELEMENT_SET_NO":999,"REV_AT_EPOCH":10396,"BSTAR":0.00050191,"MEAN_MOTION_DOT":0.00008854,"MEAN_MOTION_DDOT":0},{"OBJECT_NAME":"LEMUR-2-LLOYD","OBJECT_ID":"2024-149DP","EPOCH":"2026-07-09T01:13:20.078112","CLASSIFICATION_TYPE":"U","MEAN_MOTION":15.09671321,"ECCENTRICITY":0.00048155,"INCLINATION":97.6737,"RA_OF_ASC_NODE":271.1966,"ARG_OF_PERICENTER":85.7812,"MEAN_ANOMALY":274.3967,"EPHEMERIS_TYPE":0,"NORAD_CAT_ID":60577,"ELEMENT_SET_NO":999,"REV_AT_EPOCH":10369,"BSTAR":0.00043277782,"MEAN_MOTION_DOT":0.00006907,"MEAN_MOTION_DDOT":0},{"OBJECT_NAME":"LEMUR-2-SQUIRRELCOMM","OBJECT_ID":"2024-149DQ","EPOCH":"2026-07-08T00:49:41.985408","CLASSIFICATION_TYPE":"U","MEAN_MOTION":15.07397331,"ECCENTRICITY":0.00047468,"INCLINATION":97.6707,"RA_OF_ASC_NODE":269.8822,"ARG_OF_PERICENTER":354.4134,"MEAN_ANOMALY":5.7039,"EPHEMERIS_TYPE":0,"NORAD_CAT_ID":60578,"ELEMENT_SET_NO":999,"REV_AT_EPOCH":10354,"BSTAR":0.00024740327,"MEAN_MOTION_DOT":0.00003681,"MEAN_MOTION_DDOT":0},{"OBJECT_NAME":"LEMUR-2-SIERRINI","OBJECT_ID":"2024-149DR","EPOCH":"2026-07-09T04:50:06.033408","CLASSIFICATION_TYPE":"U","MEAN_MOTION":15.1142819,"ECCENTRICITY":0.00064759,"INCLINATION":97.6833,"RA_OF_ASC_NODE":272.8968,"ARG_OF_PERICENTER":106.2178,"MEAN_ANOMALY":253.9765,"EPHEMERIS_TYPE":0,"NORAD_CAT_ID":60579,"ELEMENT_SET_NO":999,"REV_AT_EPOCH":10378,"BSTAR":0.00044695428,"MEAN_MOTION_DOT":0.00007493,"MEAN_MOTION_DDOT":0},{"OBJECT_NAME":"LEMUR-2-WILSON","OBJECT_ID":"2025-009CP","EPOCH":"2026-07-09T04:17:57.532704","CLASSIFICATION_TYPE":"U","MEAN_MOTION":14.95266051,"ECCENTRICITY":0.00024383,"INCLINATION":97.7024,"RA_OF_ASC_NODE":268.2582,"ARG_OF_PERICENTER":357.7647,"MEAN_ANOMALY":2.3562,"EPHEMERIS_TYPE":0,"NORAD_CAT_ID":62694,"ELEMENT_SET_NO":999,"REV_AT_EPOCH":8064,"BSTAR":0.0001489224,"MEAN_MOTION_DOT":0.00001582,"MEAN_MOTION_DDOT":0},{"OBJECT_NAME":"LEMUR-2-STAR-FOX","OBJECT_ID":"2025-009CR","EPOCH":"2026-07-09T04:49:22.332288","CLASSIFICATION_TYPE":"U","MEAN_MOTION":15.027964,"ECCENTRICITY":0.00030472,"INCLINATION":97.6923,"RA_OF_ASC_NODE":271.6529,"ARG_OF_PERICENTER":63.5435,"MEAN_ANOMALY":296.6102,"EPHEMERIS_TYPE":0,"NORAD_CAT_ID":62696,"ELEMENT_SET_NO":999,"REV_AT_EPOCH":8086,"BSTAR":0.00032528538,"MEAN_MOTION_DOT":0.00004293,"MEAN_MOTION_DDOT":0},{"OBJECT_NAME":"LEMUR-2-ARIANNA","OBJECT_ID":"2025-009CU","EPOCH":"2026-07-08T19:11:52.744992","CLASSIFICATION_TYPE":"U","MEAN_MOTION":15.02792285,"ECCENTRICITY":0.00034484,"INCLINATION":97.6861,"RA_OF_ASC_NODE":271.0121,"ARG_OF_PERICENTER":70.2797,"MEAN_ANOMALY":289.88,"EPHEMERIS_TYPE":0,"NORAD_CAT_ID":62699,"ELEMENT_SET_NO":999,"REV_AT_EPOCH":8080,"BSTAR":0.00030009095,"MEAN_MOTION_DOT":0.00003955,"MEAN_MOTION_DDOT":0},{"OBJECT_NAME":"LEMUR-2-ALISIA","OBJECT_ID":"2025-009DB","EPOCH":"2026-07-09T04:09:14.708160","CLASSIFICATION_TYPE":"U","MEAN_MOTION":15.03115065,"ECCENTRICITY":0.00036028,"INCLINATION":97.696,"RA_OF_ASC_NODE":272.1946,"ARG_OF_PERICENTER":148.4324,"MEAN_ANOMALY":211.7118,"EPHEMERIS_TYPE":0,"NORAD_CAT_ID":62706,"ELEMENT_SET_NO":999,"REV_AT_EPOCH":10346,"BSTAR":0.0004518569,"MEAN_MOTION_DOT":0.0000604,"MEAN_MOTION_DDOT":0},{"OBJECT_NAME":"LEMUR-2-ROUNDTRIPPER","OBJECT_ID":"2025-009DG","EPOCH":"2026-07-09T04:22:47.683776","CLASSIFICATION_TYPE":"U","MEAN_MOTION":15.04164311,"ECCENTRICITY":0.00043944,"INCLINATION":97.7231,"RA_OF_ASC_NODE":272.833,"ARG_OF_PERICENTER":77.4321,"MEAN_ANOMALY":282.7396,"EPHEMERIS_TYPE":0,"NORAD_CAT_ID":62711,"ELEMENT_SET_NO":999,"REV_AT_EPOCH":8093,"BSTAR":0.00049281123,"MEAN_MOTION_DOT":0.0000678,"MEAN_MOTION_DDOT":0},{"OBJECT_NAME":"LEMUR-2-MYNAMEISJEFF","OBJECT_ID":"2025-009DH","EPOCH":"2026-07-09T04:20:33.990144","CLASSIFICATION_TYPE":"U","MEAN_MOTION":15.04156817,"ECCENTRICITY":0.00036298,"INCLINATION":97.7284,"RA_OF_ASC_NODE":273.2256,"ARG_OF_PERICENTER":111.5871,"MEAN_ANOMALY":248.5742,"EPHEMERIS_TYPE":0,"NORAD_CAT_ID":62712,"ELEMENT_SET_NO":999,"REV_AT_EPOCH":8093,"BSTAR":0.00049118757,"MEAN_MOTION_DOT":0.00006756,"MEAN_MOTION_DDOT":0}]}
